     2.100          NAVIGATION                              RINEX VERSION / TYPE
fic2rin                                 04/04/2014 00:28:24 PGM / RUN BY / DATE
                                                            END OF HEADER
 3 14  4  3  6  0  0.0  .346845947206D-03  .500222085975D-11  .000000000000D+00
     .210000000000D+02  .862500000000D+01  .509199781643D-08  .307420648925D+01
     .251457095146D-06  .168344075792D-01  .895932316780D-05  .515377941132D+04
     .367200000000D+06  .299885869026D-06 -.189687083638D+01 -.180676579475D-06
     .937518077494D+00  .191031250000D+03  .137239306255D+01 -.798426114795D-08
     .507521140293D-09  .100000000000D+01  .178600000000D+04  .000000000000D+00
     .240000000000D+01  .000000000000D+00 -.465661287308D-08  .210000000000D+02
     .360006000000D+06  .400000000000D+01
 5 14  4  3  6  0  0.0 -.381014775485D-03  .204636307899D-11  .000000000000D+00
     .560000000000D+02  .240937500000D+02  .458483383388D-08 -.108801206786D+01
     .119395554066D-05  .356722401921D-02  .111907720566D-04  .515356852531D+04
     .367200000000D+06  .949949026108D-07  .344597028867D+00 -.391155481339D-07
     .947919107584D+00  .159156250000D+03  .337814348169D+00 -.795854579109D-08
    -.413945813933D-09  .100000000000D+01  .178600000000D+04  .000000000000D+00
     .240000000000D+01  .000000000000D+00 -.102445483208D-07  .560000000000D+02
     .360006000000D+06  .400000000000D+01
 8 14  4  3  6  0  0.0  .126780942082D-04  .227373675443D-12  .000000000000D+00
     .640000000000D+02 -.510625000000D+02  .382301638683D-08  .108558481613D+01
    -.260397791862D-05  .135748070898D-01  .390037894249D-05  .515348528290D+04
     .367200000000D+06 -.875443220139D-07  .256475416415D+01  .176951289177D-06
     .996996604933D+00  .324468750000D+03 -.278223721121D+01 -.801961976364D-08
    -.307155651409D-09  .100000000000D+01  .178600000000D+04  .000000000000D+00
     .240000000000D+01  .000000000000D+00 -.419095158577D-08  .640000000000D+02
     .360006000000D+06  .400000000000D+01
 9 14  4  3  6  0  0.0  .317252706736D-03  .284217094304D-11  .000000000000D+00
     .970000000000D+02 -.409062500000D+02  .410017078857D-08  .273573594186D+01
    -.206939876080D-05  .170576643432D-01  .265240669250D-05  .515368782234D+04
     .367200000000D+06  .251457095146D-06  .244574279112D+01 -.931322574615D-08
     .982271149502D+00  .337468750000D+03  .178346209873D+01 -.787961393183D-08
    -.194650965137D-09  .100000000000D+01  .178600000000D+04  .000000000000D+00
     .485000000000D+01  .000000000000D+00 -.605359673500D-08  .970000000000D+02
     .360006000000D+06  .400000000000D+01
10 14  4  3  6  0  0.0 -.120357144624D-03 -.125055521494D-11  .000000000000D+00
     .560000000000D+02  .214062500000D+02  .476162691230D-08 -.780774253856D+00
     .112317502499D-05  .134914054070D-01  .105593353510D-04  .515372607613D+04
     .367200000000D+06  .106170773506D-06  .362167694652D+00  .325962901115D-06
     .942715507976D+00  .166875000000D+03  .861638561882D+00 -.823391440416D-08
    -.451090218290D-09  .100000000000D+01  .178600000000D+04  .000000000000D+00
     .240000000000D+01  .000000000000D+00 -.279396772385D-08  .560000000000D+02
     .360006000000D+06  .400000000000D+01
11 14  4  3  6  0  0.0 -.477475579828D-03 -.318323145621D-11  .000000000000D+00
     .240000000000D+02 -.209375000000D+01  .667670668306D-08  .183721691676D+01
    -.420957803726D-06  .148316986160D-01  .452809035778D-05  .515369278526D+04
     .367200000000D+06 -.912696123123D-07 -.101402198995D+01 -.400468707085D-06
     .890059338498D+00  .254187500000D+03  .127319384131D+01 -.903394772876D-08
     .953611150304D-10  .100000000000D+01  .178600000000D+04  .000000000000D+00
     .240000000000D+01  .000000000000D+00 -.116415321827D-07  .240000000000D+02
     .360006000000D+06  .400000000000D+01
12 14  4  3  6  0  0.0  .196189619601D-03  .238742359215D-11  .000000000000D+00
     .370000000000D+02 -.742812500000D+02  .372872674501D-08  .125398029512D+01
    -.406429171562D-05  .504566531163D-02  .109914690256D-04  .515365755463D+04
     .367200000000D+06  .260770320892D-07 -.275485480653D+01  .838190317154D-07
     .987388745619D+00  .181000000000D+03  .378783608898D+00 -.769532054099D-08
    -.821462788651D-11  .100000000000D+01  .178600000000D+04  .000000000000D+00
     .240000000000D+01  .000000000000D+00 -.121071934700D-07  .370000000000D+02
     .360006000000D+06  .400000000000D+01
14 14  4  3  6  0  0.0  .184982549399D-03 -.329691829393D-11  .000000000000D+00
     .410000000000D+02  .113500000000D+03  .424374819772D-08 -.195404583545D+01
     .583007931709D-05  .732854520902D-02  .609271228313D-05  .515364105225D+04
     .367200000000D+06  .199303030968D-06  .146987671097D+01 -.119209289551D-06
     .970458045050D+00  .269062500000D+03 -.199836682290D+01 -.797390357366D-08
     .245724521127D-09  .100000000000D+01  .178600000000D+04  .000000000000D+00
     .240000000000D+01  .000000000000D+00 -.884756445885D-08  .410000000000D+02
     .360006000000D+06  .400000000000D+01
15 14  4  3  6  0  0.0 -.171768479049D-03 -.216004991671D-11  .000000000000D+00
     .410000000000D+02  .115031250000D+03  .492163357722D-08 -.255338119176D+01
     .592134892941D-05  .623080600053D-02  .640377402306D-05  .515367296982D+04
     .367200000000D+06 -.745058059692D-08  .135959866044D+01  .745058059692D-08
     .937108796903D+00  .245906250000D+03  .271691223407D+00 -.833927593574D-08
     .280011663610D-09  .100000000000D+01  .178600000000D+04  .000000000000D+00
     .240000000000D+01  .000000000000D+00 -.102445483208D-07  .410000000000D+02
     .360006000000D+06  .400000000000D+01
17 14  4  3  6  0  0.0 -.818227417767D-04 -.318323145621D-11  .000000000000D+00
     .700000000000D+01  .266562500000D+02  .460304887832D-08 -.189520724836D+01
     .144168734550D-05  .926796568092D-02  .793114304543D-05  .515356711388D+04
     .367200000000D+06  .117346644402D-06 -.170380119297D+01  .372529029846D-08
     .967818834042D+00  .228406250000D+03 -.210702888292D+01 -.791890128260D-08
     .573952478853D-09  .100000000000D+01  .178600000000D+04  .000000000000D+00
     .240000000000D+01  .000000000000D+00 -.102445483208D-07  .700000000000D+01
     .360006000000D+06  .400000000000D+01
18 14  4  3  6  0  0.0  .310956500471D-03  .227373675443D-11  .000000000000D+00
     .560000000000D+02  .231875000000D+02  .526629079072D-08 -.257727171485D+00
     .126101076603D-05  .149973838124D-01  .107865780592D-04  .515368549538D+04
     .367200000000D+06 -.521540641785D-07  .340481790570D+00  .150874257088D-06
     .926483725297D+00  .154687500000D+03 -.205188977573D+01 -.859071498062D-08
    -.473948313278D-09  .100000000000D+01  .178600000000D+04  .000000000000D+00
     .240000000000D+01  .000000000000D+00 -.107102096081D-07  .560000000000D+02
     .360006000000D+06  .400000000000D+01
19 14  4  3  6  0  0.0 -.448706094176D-03 -.238742359215D-11  .000000000000D+00
     .670000000000D+02  .165625000000D+02  .467662337156D-08 -.265532618589D+01
     .713393092155D-06  .101312288316D-01  .823102891445D-05  .515359190750D+04
     .367200000000D+06 -.614672899246D-07 -.165279256622D+01 -.236555933952D-06
     .964935564411D+00  .225156250000D+03  .410493718780D+00 -.791890128260D-08
     .526807657939D-09  .100000000000D+01  .178600000000D+04  .000000000000D+00
     .240000000000D+01  .000000000000D+00 -.149011611938D-07  .670000000000D+02
     .360006000000D+06  .400000000000D+01
20 14  4  3  6  0  0.0  .176009722054D-03  .363797880709D-11  .000000000000D+00
     .660000000000D+02 -.593750000000D+00  .517200114889D-08  .290649155390D+00
     .186264514923D-08  .586829951499D-02  .107381492853D-04  .515354629135D+04
     .367200000000D+06 -.147148966789D-06  .287368646446D+00  .130385160446D-07
     .927462724705D+00  .154843750000D+03  .131674643982D+01 -.835356224511D-08
    -.476805575152D-09  .100000000000D+01  .178600000000D+04  .000000000000D+00
     .240000000000D+01  .000000000000D+00 -.791624188423D-08  .660000000000D+02
     .360006000000D+06  .400000000000D+01
21 14  4  3  6  0  0.0 -.353106763214D-03 -.227373675443D-11  .000000000000D+00
     .710000000000D+02 -.197187500000D+02  .583310011489D-08  .738746536787D+00
    -.782310962677D-06  .213526143925D-01  .602006912231D-05  .515376881981D+04
     .367200000000D+06 -.268220901489D-06 -.704683250029D+00  .875443220139D-07
     .932216089331D+00  .256062500000D+03 -.204350032383D+01 -.900501795229D-08
    -.434660962517D-09  .100000000000D+01  .178600000000D+04  .000000000000D+00
     .240000000000D+01  .000000000000D+00 -.111758708954D-07  .710000000000D+02
     .360006000000D+06  .400000000000D+01
23 14  4  3  6  0  0.0 -.921264290810D-05 -.318323145621D-11  .000000000000D+00
     .730000000000D+02  .101843750000D+03  .462054960729D-08 -.298325802943D+01
     .521354377270D-05  .907825713512D-02  .679865479469D-05  .515357339859D+04
     .367200000000D+06 -.707805156708D-07  .140547859630D+01 -.838190317154D-07
     .952130816550D+00  .244343750000D+03 -.279963129986D+01 -.810605193531D-08
     .258582199558D-09  .100000000000D+01  .178600000000D+04  .000000000000D+00
     .240000000000D+01  .000000000000D+00 -.200234353542D-07  .730000000000D+02
     .360006000000D+06  .400000000000D+01
24 14  4  3  6  0  0.0 -.260416418314D-04 -.682121026330D-12  .000000000000D+00
     .480000000000D+02 -.419375000000D+02  .477698469487D-08  .253345441156D+01
    -.207871198654D-05  .202397303656D-02  .241585075855D-05  .515374190521D+04
     .367200000000D+06 -.596046447754D-07  .243281460662D+01 -.391155481339D-07
     .957094670218D+00  .329281250000D+03  .302024080767D+00 -.851071164816D-08
    -.771460705864D-10  .100000000000D+01  .178600000000D+04  .000000000000D+00
     .240000000000D+01  .000000000000D+00  .325962901115D-08  .480000000000D+02
     .360006000000D+06  .400000000000D+01
